LEDSAT                  
1 49069U 21073D   24270.67390046  .00036558  00000+0  12288-2 0  9990
2 49069  97.4273 341.4355 0015953 282.6071  77.3386 15.30610720171947
XW-3 (CAS-9)            
1 50466U 21131B   24270.86515035  .00001757  00000+0  57194-3 0  9995
2 50466  98.5244 355.4607 0004462 169.2437 190.8847 14.39991037144634
GREENCUBE               
1 53106U 22080B   24267.95696015 -.00000003  00000+0  00000+0 0  9991
2 53106  70.1418 158.2149 0008148  84.7125 275.4465  6.42557419 51615
CAS-5A (FO-118)         
1 54684U 22167C   24270.87341878  .00078044  00000+0  19140-2 0  9995
2 54684  97.6147  58.8279 0008134 155.9479 204.2148 15.40394032 99895
STRATOSAT-TK 1 (RS52S)  
1 57167U 23091B   24270.82962266  .00034206  00000+0  16936-2 0  9998
2 57167  97.6000 323.8901 0015337 128.7558 231.5049 15.17598655 68944
UMKA 1 (RS40S)          
1 57172U 23091G   24270.82517748  .00013308  00000+0  82888-3 0  9995
2 57172  97.6013 321.9093 0017484 132.2126 228.0591 15.09572311 68812
CUBESX-HSE 3 (RS42S)    
1 57178U 23091N   24270.86391454  .00018210  00000+0  10647-2 0  9999
2 57178  97.6045 322.6880 0017942 126.0378 234.2517 15.11790438 68850
MONITOR-4 (RS57S)       
1 57182U 23091S   24270.82321808  .00017798  00000+0  10608-2 0  9993
2 57182  97.6036 322.3647 0018195 127.5347 232.7539 15.11096769 68837
MONITOR-2 (RS39S)       
1 57184U 23091U   24270.78974157  .00009816  00000+0  61610-3 0  9993
2 57184  97.6039 322.2887 0015277 121.8584 238.4134 15.09403005 68820
SVYATOBOR 1 (RS60S)     
1 57187U 23091X   24270.82180816  .00015536  00000+0  91416-3 0  9995
2 57187  97.6044 323.0207 0014541 118.7110 241.5584 15.11643927 68878
VIZARD-METEO (RS38S)    
1 57189U 23091Z   24270.86505805  .00018867  00000+0  10489-2 0  9990
2 57189  97.6032 323.6863 0013481 115.9208 244.3414 15.13655286 68922
NANOZOND 1 (RS49S)      
1 57190U 23091AA  24270.78870886  .00028982  00000+0  14354-2 0  9991
2 57190  97.6000 324.5546 0011481 120.0309 240.2065 15.17671821 68984
POLYTECH-UNIVERSE 3 (R*)
1 57191U 23091AB  24270.86314253  .00010617  00000+0  66466-3 0  9990
2 57191  97.6008 321.9965 0020346 137.6329 222.6476 15.09398583 68820
UTMN 2 (RS27S)          
1 57203U 23091AP  24270.82938758  .00018572  00000+0  10537-2 0  9997
2 57203  97.6034 323.4229 0013700 116.6285 243.6351 15.12927194 68901
ARCCUBE 1 (RS25S)       
1 57205U 23091AR  24270.86554707  .00035920  00000+0  16757-2 0  9997
2 57205  97.5965 324.9257 0011375 120.5909 239.6449 15.19705005 69024
KUZGTU 1 (RS47S)        
1 57217U 23091AV  24270.81834071  .00018152  00000+0  10684-2 0  9991
2 57217  97.6023 322.4471 0017798 127.5145 232.7706 15.11553346 68848
HADES-D (SO-121)        
1 58567U 23174CY  24270.79342606  .00244663  00000+0  38195-2 0  9992
2 58567  97.4391 348.0680 0011392 226.9064 133.1237 15.52886223 49409
OOV-CUBE (TUBSAT-30)    
1 60240U 24128F   24270.29691120  .00008100  00000+0  71094-3 0  9996
2 60240  61.9966 250.6301 0016699 335.0628  24.9651 14.97191239 11742
CUTE-1 (CO-55)          
1 27844U 03031E   24270.73807645  .00001048  00000+0  48001-3 0  9995
2 27844  98.6804 276.3777 0009142 203.3437 156.7328 14.23487079102267
CUBESAT XI-IV (CO-57)   
1 27848U 03031J   24270.50216547  .00000869  00000+0  40577-3 0  9999
2 27848  98.6834 276.3305 0008740 221.7693 138.2819 14.22896045101997
CUBESAT XI-V            
1 28895U 05043F   24270.17834124  .00005784  00000+0  10008-2 0  9993
2 28895  98.2153  46.2853 0015766  41.5615 318.6785 14.68650111  9502
CUTE-1.7+APD II (CO-65) 
1 32785U 08021C   24270.17449286  .00013853  00000+0  11531-2 0  9994
2 32785  97.7648 234.8373 0009975   2.2044 357.9221 14.98744116890663
AAUSAT-II               
1 32788U 08021F   24269.84545770  .00060238  00000+0  23699-2 0  9991
2 32788  97.6017 250.9161 0006936 135.1598 225.0201 15.25398469893622
CANX-2                  
1 32790U 08021H   24270.48160505  .00010826  00000+0  94453-3 0  9990
2 32790  97.7787 233.7993 0012062   8.2332 351.9085 14.96962786890515
SEEDS II (CO-66)        
1 32791U 08021J   24269.77410602  .00022467  00000+0  14891-2 0  9998
2 32791  97.7016 240.6481 0004328  11.0430 349.0892 15.07288525891731
SWISSCUBE               
1 35932U 09051B   24270.15813722  .00003832  00000+0  81347-3 0  9992
2 35932  98.4540 155.4478 0007713  17.6534 342.4931 14.59705956797327
BEESAT-1                
1 35933U 09051C   24269.90967214  .00003165  00000+0  67894-3 0  9990
2 35933  98.4470 155.9672 0006366  32.5953 327.5638 14.59352316797310
ITUPSAT1                
1 35935U 09051E   24270.40941152  .00003081  00000+0  67683-3 0  9995
2 35935  98.4569 156.2037 0008708  34.0854 326.0902 14.58265421797046
TISAT 1                 
1 36799U 10035E   24270.47813457  .00022671  00000+0  15674-2 0  9999
2 36799  98.0728 164.4364 0001988 233.6602 126.4440 15.05727479772482
AEROCUBE 4.5A           
1 38767U 12048K   24269.63389837  .00029709  00000+0  13656-2 0  9995
2 38767  64.6598 350.2242 0112218 344.5693  15.2016 15.14736890275652
AEROCUBE 4.5B           
1 38768U 12048L   24270.37817517  .00095474  00000+0  23780-2 0  9991
2 38768  64.6499 264.2340 0085349 332.3588  27.3019 15.35977701276905
STRAND-1                
1 39090U 13009E   24270.08887094  .00001064  00000+0  37855-3 0  9994
2 39090  98.3817  95.6196 0008088 317.3154  42.7404 14.36295320606742
BRITE-AUSTRIA           
1 39091U 13009F   24270.08593159  .00000696  00000+0  25444-3 0  9992
2 39091  98.3865  94.8923 0009626 324.1724  35.8816 14.35956789606756
NEE-01 PEGASO           
1 39151U 13018B   24270.32595236  .00008810  00000+0  98345-3 0  9990
2 39151  98.0454  28.5685 0015172  71.7614 288.5251 14.87156913617007
ESTCUBE 1               
1 39161U 13021C   24270.63363909  .00005314  00000+0  75420-3 0  9994
2 39161  97.8186 334.0142 0007567 258.4805 101.5556 14.77349163612103
POPACS 1                
1 39268U 13055D   24270.34625907  .00088131  48409-6  13364-2 0  9994
2 39268  80.9774  34.2536 0366381 125.0398 238.5784 15.03771253577148
POPACS 2                
1 39269U 13055E   24269.88952603  .00035460  00000+0  78599-3 0  9995
2 39269  80.9998 129.7265 0532765  14.9403 346.6854 14.61519226571506
POPACS 3                
1 39270U 13055F   24270.74363010  .00016883  00000+0  45180-3 0  9990
2 39270  81.0092 182.9075 0616529 163.5214 198.7054 14.39917100568262
ZACUBE-1 (TSHEPISOSAT)  
1 39417U 13066B   24270.11536345  .00010696  00000+0  10576-2 0  9995
2 39417  97.7442 223.9880 0048439 183.4179 176.6716 14.91189617586619
WNISAT-1                
1 39423U 13066H   24270.48958930  .00002483  00000+0  47507-3 0  9990
2 39423  97.6693  96.6346 0169775  51.4042 310.2224 14.55801051575380
TRITON-1                
1 39427U 13066M   24270.75927313  .00007322  00000+0  99707-3 0  9991
2 39427  97.8354 185.5294 0102327 114.1983 246.9963 14.75390301581375
DELFI-N3XT              
1 39428U 13066N   24270.52627227  .00015248  00000+0  18279-2 0  9998
2 39428  97.8317 186.3202 0098946 118.6846 242.4357 14.80657935581251
GOMX-1                  
1 39430U 13066Q   24270.57207119  .00006000  00000+0  98017-3 0  9995
2 39430  97.7153 138.7982 0136351 290.6114  68.0511 14.65184381577880
CUBEBUG-2 (LO-74)       
1 39440U 13066AA  24270.78325461  .00011771  00000+0  13274-2 0  9992
2 39440  97.8181 212.3890 0065689 303.0322  56.4593 14.85160887584601
NEE-02 KRYSAOR          
1 39441U 13066AB  24270.54058176  .00007784  00000+0  95987-3 0  9994
2 39441  97.8265 207.5985 0071767 327.7623  31.9212 14.81328103584099
FUNCUBE-1 (AO-73)       
1 39444U 13066AE  24270.39936870  .00014924  00000+0  13518-2 0  9999
2 39444  97.7294 227.6881 0046492 160.9127 199.3849 14.94631878585809
UWE-3                   
1 39446U 13066AG  24270.39806010  .00011793  00000+0  12538-2 0  9995
2 39446  97.7890 218.1231 0056131 245.7322 113.8025 14.87965771584335
BRITE-CA1 (TORONTO)     
1 40020U 14033L   24270.80401374  .00004371  00000+0  69750-3 0  9993
2 40020  97.8915  44.4683 0083209 127.2802 233.6029 14.70078306549908
DUCHIFAT-1              
1 40021U 14033M   24270.40178527  .00031821  00000+0  18547-2 0  9998
2 40021  98.0985 259.7818 0015084 113.0505 247.2315 15.11825930559391
NANOSATC-BR1            
1 40024U 14033Q   24270.60966862  .00021648  00000+0  14506-2 0  9997
2 40024  98.0743 247.2128 0006232 157.7206 202.4292 15.06888667559027
QB50P1                  
1 40025U 14033R   24270.35374689  .00017511  00000+0  13227-2 0  9993
2 40025  98.0544 234.6722 0011669 182.5067 177.6100 15.02401972558563
QB50P2                  
1 40032U 14033Y   24270.41494640  .00016918  00000+0  13293-2 0  9991
2 40032  98.0129 225.7247 0010417 136.5601 223.6444 15.00916886558360
PERSEUS-M2              
1 40037U 14033AD  24269.90256228  .00005983  00000+0  60447-3 0  9990
2 40037  97.9282 201.1084 0011551 216.0195 144.0245 14.91372137557337
PERSEUS-M1              
1 40039U 14033AF  24270.74665608  .00006202  00000+0  62884-3 0  9994
2 40039  97.9063 197.7163 0011457 212.0418 148.0104 14.91208056557328
POLYITAN-1              
1 40042U 14033AJ  24269.87417331  .00025868  00000+0  17606-2 0  9998
2 40042  98.0797 238.5816 0013865 142.7769 217.4420 15.06206371557978
TIGRISAT                
1 40043U 14033AK  24270.38997379  .00006476  00000+0  84130-3 0  9993
2 40043  97.7069  68.8810 0053676 334.6910  25.1674 14.80021932552721
AEROCUBE 6A             
1 40045U 14033AM  24270.43751677  .00014759  00000+0  16693-2 0  9991
2 40045  97.6774  80.1017 0047810 309.2457  50.4520 14.85719314553059
AEROCUBE 6B             
1 40046U 14033AN  24270.74887134  .00013808  00000+0  15291-2 0  9991
2 40046  97.6741  79.2019 0046307 302.8783  56.7981 14.86644873553302
